OBJECT B                
1 51825U 22019B   25237.58829701  .00020754  00000+0  46632-3 0  9995
2 51825  97.3803 315.1303 0010888 129.5875 230.6336 15.43316371193764
